start=new Date('2022-09-26T00:00:00.000Z').valueOf();
sats=[{"NORAD_CAT_ID":"53688","FILE":"3583741","LAUNCH_DATE":"2022-08-31","OBJECT_ID":"2022-105AS","ARG_OF_PERICENTER":"133.0890","EPHEMERIS_TYPE":"0","REF_FRAME":"TEME","PERIAPSIS":"409.798","TIME_SYSTEM":"UTC","INCLINATION":"97.6544","MEAN_MOTION_DOT":"-0.00640544","RCS_SIZE":"LARGE","SITE":"AFWTR","CENTER_NAME":"EARTH","PERIOD":"92.790","MEAN_ANOMALY":"148.8585","OBJECT_TYPE":"PAYLOAD","REV_AT_EPOCH":"430","OBJECT_NAME":"STARLINK-4571","MEAN_MOTION_DDOT":"0.0000000000000","GP_ID":"213482619","TLE_LINE2":"2 53688  97.6544 148.0207 0002096 133.0890 148.8585 15.51886100  4301","COUNTRY_CODE":"US","DECAY_DATE":null,"APOAPSIS":"412.645","SEMIMAJOR_AXIS":"6789.356","TLE_LINE1":"1 53688U 22105AS  22268.91668981 -.00640544  00000-0 -11593-1 0  9993","BSTAR":"-0.01159300000000","CLASSIFICATION_TYPE":"U","RA_OF_ASC_NODE":"148.0207","MEAN_ELEMENT_THEORY":"SGP4","MEAN_MOTION":"15.51886100","EPOCH":"2022-09-25T22:00:01.999584","ECCENTRICITY":"0.00020960","ELEMENT_SET_NO":"999"},{"RA_OF_ASC_NODE":"148.0209","CLASSIFICATION_TYPE":"U","APOAPSIS":"412.666","TLE_LINE1":"1 53689U 22105AT  22268.91668981 -.00637337  00000-0 -11536-1 0  9997","SEMIMAJOR_AXIS":"6789.396","BSTAR":"-0.01153600000000","COUNTRY_CODE":"US","DECAY_DATE":null,"ELEMENT_SET_NO":"999","MEAN_MOTION":"15.51872568","ECCENTRICITY":"0.00020700","EPOCH":"2022-09-25T22:00:01.999584","MEAN_ELEMENT_THEORY":"SGP4","REV_AT_EPOCH":"430","OBJECT_NAME":"STARLINK-4562","MEAN_ANOMALY":"142.6002","OBJECT_TYPE":"PAYLOAD","GP_ID":"213482608","TLE_LINE2":"2 53689  97.6550 148.0209 0002070 138.7286 142.6002 15.51872568  4303","MEAN_MOTION_DDOT":"0.0000000000000","RCS_SIZE":"LARGE","INCLINATION":"97.6550","MEAN_MOTION_DOT":"-0.00637337","TIME_SYSTEM":"UTC","PERIOD":"92.791","CENTER_NAME":"EARTH","SITE":"AFWTR","OBJECT_ID":"2022-105AT","LAUNCH_DATE":"2022-08-31","ARG_OF_PERICENTER":"138.7286","FILE":"3583741","NORAD_CAT_ID":"53689","PERIAPSIS":"409.856","REF_FRAME":"TEME","EPHEMERIS_TYPE":"0"},{"RA_OF_ASC_NODE":"148.0212","CLASSIFICATION_TYPE":"U","TLE_LINE1":"1 53690U 22105AU  22268.91668981 -.00395314  00000-0 -69419-2 0  9999","SEMIMAJOR_AXIS":"6789.395","BSTAR":"-0.00694190000000","APOAPSIS":"412.820","COUNTRY_CODE":"US","DECAY_DATE":null,"ELEMENT_SET_NO":"999","EPOCH":"2022-09-25T22:00:01.999584","ECCENTRICITY":"0.00022980","MEAN_MOTION":"15.51873004","MEAN_ELEMENT_THEORY":"SGP4","REV_AT_EPOCH":"130","OBJECT_NAME":"STARLINK-4570","OBJECT_TYPE":"PAYLOAD","MEAN_ANOMALY":"143.5188","TLE_LINE2":"2 53690  97.6537 148.0212 0002298 139.6288 143.5188 15.51873004  1306","GP_ID":"213508980","MEAN_MOTION_DDOT":"0.0000000000000","RCS_SIZE":"LARGE","MEAN_MOTION_DOT":"-0.00395314","INCLINATION":"97.6537","TIME_SYSTEM":"UTC","PERIOD":"92.791","CENTER_NAME":"EARTH","SITE":"AFWTR","ARG_OF_PERICENTER":"139.6288","OBJECT_ID":"2022-105AU","LAUNCH_DATE":"2022-08-31","NORAD_CAT_ID":"53690","FILE":"3583828","REF_FRAME":"TEME","PERIAPSIS":"409.699","EPHEMERIS_TYPE":"0"},{"EPOCH":"2022-09-25T22:00:01.999584","ECCENTRICITY":"0.00019640","MEAN_MOTION":"15.51935182","ELEMENT_SET_NO":"999","MEAN_ELEMENT_THEORY":"SGP4","CLASSIFICATION_TYPE":"U","RA_OF_ASC_NODE":"148.0195","DECAY_DATE":null,"COUNTRY_CODE":"US","BSTAR":"-0.01191300000000","TLE_LINE1":"1 53691U 22105AV  22268.91668981 -.00657923  00000-0 -11913-1 0  9992","SEMIMAJOR_AXIS":"6789.213","APOAPSIS":"412.412","MEAN_MOTION_DDOT":"0.0000000000000","TLE_LINE2":"2 53691  97.6541 148.0195 0001964 136.7989 145.7300 15.51935182  4306","GP_ID":"213483116","OBJECT_NAME":"STARLINK-4560","REV_AT_EPOCH":"430","OBJECT_TYPE":"PAYLOAD","MEAN_ANOMALY":"145.7300","PERIOD":"92.787","SITE":"AFWTR","CENTER_NAME":"EARTH","RCS_SIZE":"LARGE","TIME_SYSTEM":"UTC","INCLINATION":"97.6541","MEAN_MOTION_DOT":"-0.00657923","PERIAPSIS":"409.745","REF_FRAME":"TEME","EPHEMERIS_TYPE":"0","ARG_OF_PERICENTER":"136.7989","OBJECT_ID":"2022-105AV","LAUNCH_DATE":"2022-08-31","FILE":"3583741","NORAD_CAT_ID":"53691"},{"CLASSIFICATION_TYPE":"U","RA_OF_ASC_NODE":"148.0198","DECAY_DATE":null,"COUNTRY_CODE":"US","TLE_LINE1":"1 53692U 22105AW  22268.91668981 -.00083472  00000-0 -14132-2 0  9992","BSTAR":"-0.00141320000000","SEMIMAJOR_AXIS":"6789.659","APOAPSIS":"413.179","ECCENTRICITY":"0.00024370","EPOCH":"2022-09-25T22:00:01.999584","MEAN_MOTION":"15.51782262","ELEMENT_SET_NO":"999","MEAN_ELEMENT_THEORY":"SGP4","OBJECT_NAME":"STARLINK-4572","REV_AT_EPOCH":"430","OBJECT_TYPE":"PAYLOAD","MEAN_ANOMALY":"141.2200","MEAN_MOTION_DDOT":"0.0000000000000","TLE_LINE2":"2 53692  97.6538 148.0198 0002437 142.4833 141.2200 15.51782262  4303","GP_ID":"213481198","RCS_SIZE":"LARGE","TIME_SYSTEM":"UTC","INCLINATION":"97.6538","MEAN_MOTION_DOT":"-0.00083472","PERIOD":"92.797","SITE":"AFWTR","CENTER_NAME":"EARTH","ARG_OF_PERICENTER":"142.4833","OBJECT_ID":"2022-105AW","LAUNCH_DATE":"2022-08-31","FILE":"3583672","NORAD_CAT_ID":"53692","PERIAPSIS":"409.870","REF_FRAME":"TEME","EPHEMERIS_TYPE":"0"},{"EPHEMERIS_TYPE":"0","PERIAPSIS":"410.000","REF_FRAME":"TEME","FILE":"3583741","NORAD_CAT_ID":"53693","LAUNCH_DATE":"2022-08-31","OBJECT_ID":"2022-105AX","ARG_OF_PERICENTER":"137.9905","SITE":"AFWTR","CENTER_NAME":"EARTH","PERIOD":"92.798","TIME_SYSTEM":"UTC","INCLINATION":"97.6541","MEAN_MOTION_DOT":"-0.00042892","RCS_SIZE":"LARGE","MEAN_MOTION_DDOT":"0.0000000000000","GP_ID":"213482620","TLE_LINE2":"2 53693  97.6541 148.0183 0002337 137.9905 146.3172 15.51760895  4302","MEAN_ANOMALY":"146.3172","OBJECT_TYPE":"PAYLOAD","REV_AT_EPOCH":"430","OBJECT_NAME":"STARLINK-4566","MEAN_ELEMENT_THEORY":"SGP4","MEAN_MOTION":"15.51760895","EPOCH":"2022-09-25T22:00:01.999584","ECCENTRICITY":"0.00023370","ELEMENT_SET_NO":"999","DECAY_DATE":null,"COUNTRY_CODE":"US","APOAPSIS":"413.173","TLE_LINE1":"1 53693U 22105AX  22268.91668981 -.00042892  00000-0 -72222-3 0  9999","BSTAR":"-0.00072222000000","SEMIMAJOR_AXIS":"6789.722","CLASSIFICATION_TYPE":"U","RA_OF_ASC_NODE":"148.0183"},{"TLE_LINE2":"2 53700  53.2147 170.0621 0001298 137.5946 194.4385 15.73353904  3390","GP_ID":"213483181","MEAN_MOTION_DDOT":"0.0000000000000","OBJECT_NAME":"STARLINK-4725","REV_AT_EPOCH":"339","MEAN_ANOMALY":"194.4385","OBJECT_TYPE":"PAYLOAD","ELEMENT_SET_NO":"999","MEAN_MOTION":"15.73353904","ECCENTRICITY":"0.00012980","EPOCH":"2022-09-25T22:00:01.999584","MEAN_ELEMENT_THEORY":"SGP4","RA_OF_ASC_NODE":"170.0621","CLASSIFICATION_TYPE":"U","APOAPSIS":"350.195","BSTAR":"0.00027401000000","TLE_LINE1":"1 53700U 22107A   22268.91668981  .00038265  00000-0  27401-3 0  9996","SEMIMAJOR_AXIS":"6727.456","COUNTRY_CODE":"US","DECAY_DATE":null,"REF_FRAME":"TEME","PERIAPSIS":"348.448","EPHEMERIS_TYPE":"0","OBJECT_ID":"2022-107A","LAUNCH_DATE":"2022-09-05","ARG_OF_PERICENTER":"137.5946","FILE":"3583745","NORAD_CAT_ID":"53700","PERIOD":"91.524","CENTER_NAME":"EARTH","SITE":"AFETR","RCS_SIZE":"LARGE","MEAN_MOTION_DOT":"0.00038265","INCLINATION":"53.2147","TIME_SYSTEM":"UTC"},{"MEAN_ANOMALY":"198.5142","OBJECT_TYPE":"PAYLOAD","REV_AT_EPOCH":"130","OBJECT_NAME":"STARLINK-4711","MEAN_MOTION_DDOT":"0.0000000000000","GP_ID":"213509949","TLE_LINE2":"2 53701  53.2149 170.0612 0001317 133.8315 198.5142 15.73224837  1301","DECAY_DATE":null,"COUNTRY_CODE":"US","APOAPSIS":"350.575","SEMIMAJOR_AXIS":"6727.824","TLE_LINE1":"1 53701U 22107B   22268.91668981 -.00078345  00000-0 -55840-3 0  9990","BSTAR":"-0.00055840000000","CLASSIFICATION_TYPE":"U","RA_OF_ASC_NODE":"170.0612","MEAN_ELEMENT_THEORY":"SGP4","MEAN_MOTION":"15.73224837","ECCENTRICITY":"0.00013170","EPOCH":"2022-09-25T22:00:01.999584","ELEMENT_SET_NO":"999","NORAD_CAT_ID":"53701","FILE":"3583828","OBJECT_ID":"2022-107B","LAUNCH_DATE":"2022-09-05","ARG_OF_PERICENTER":"133.8315","EPHEMERIS_TYPE":"0","PERIAPSIS":"348.803","REF_FRAME":"TEME","TIME_SYSTEM":"UTC","INCLINATION":"53.2149","MEAN_MOTION_DOT":"-0.00078345","RCS_SIZE":"LARGE","SITE":"AFETR","CENTER_NAME":"EARTH","PERIOD":"91.532"},{"MEAN_ELEMENT_THEORY":"SGP4","MEAN_MOTION":"15.72949227","EPOCH":"2022-09-25T22:00:01.999584","ECCENTRICITY":"0.00014900","ELEMENT_SET_NO":"999","COUNTRY_CODE":"US","DECAY_DATE":null,"APOAPSIS":"351.478","TLE_LINE1":"1 53702U 22107C   22268.91668981  .00391388  00000-0  26938-2 0  9999","SEMIMAJOR_AXIS":"6728.610","BSTAR":"0.00269380000000","CLASSIFICATION_TYPE":"U","RA_OF_ASC_NODE":"170.0573","MEAN_MOTION_DDOT":"0.0000000000000","GP_ID":"213482683","TLE_LINE2":"2 53702  53.2172 170.0573 0001490 140.0199 193.5679 15.72949227  3393","MEAN_ANOMALY":"193.5679","OBJECT_TYPE":"PAYLOAD","REV_AT_EPOCH":"339","OBJECT_NAME":"STARLINK-4724","SITE":"AFETR","CENTER_NAME":"EARTH","PERIOD":"91.548","TIME_SYSTEM":"UTC","INCLINATION":"53.2172","MEAN_MOTION_DOT":"0.00391388","RCS_SIZE":"LARGE","EPHEMERIS_TYPE":"0","PERIAPSIS":"349.473","REF_FRAME":"TEME","FILE":"3583745","NORAD_CAT_ID":"53702","OBJECT_ID":"2022-107C","LAUNCH_DATE":"2022-09-05","ARG_OF_PERICENTER":"140.0199"},{"MEAN_ELEMENT_THEORY":"SGP4","ELEMENT_SET_NO":"999","MEAN_MOTION":"15.73211658","EPOCH":"2022-09-25T22:00:01.999584","ECCENTRICITY":"0.00013660","APOAPSIS":"350.646","TLE_LINE1":"1 53703U 22107D   22268.91668981 -.00079374  00000-0 -56618-3 0  9999","BSTAR":"-0.00056618000000","SEMIMAJOR_AXIS":"6727.862","DECAY_DATE":null,"COUNTRY_CODE":"US","RA_OF_ASC_NODE":"170.0636","CLASSIFICATION_TYPE":"U","TLE_LINE2":"2 53703  53.2150 170.0636 0001366 131.4212 199.7551 15.73211658  3390","GP_ID":"213483188","MEAN_MOTION_DDOT":"0.0000000000000","MEAN_ANOMALY":"199.7551","OBJECT_TYPE":"PAYLOAD","REV_AT_EPOCH":"339","OBJECT_NAME":"STARLINK-4731","CENTER_NAME":"EARTH","SITE":"AFETR","PERIOD":"91.533","INCLINATION":"53.2150","MEAN_MOTION_DOT":"-0.00079374","TIME_SYSTEM":"UTC","RCS_SIZE":"LARGE","EPHEMERIS_TYPE":"0","PERIAPSIS":"348.808","REF_FRAME":"TEME","FILE":"3583745","NORAD_CAT_ID":"53703","OBJECT_ID":"2022-107D","LAUNCH_DATE":"2022-09-05","ARG_OF_PERICENTER":"131.4212"}];
